LEMUR-2-GREENBERG       
1 42837U 17042N   26068.46200528  .00019778  00000+0  72539-3 0  9997
2 42837  97.3781 249.8007 0009157   4.0119 356.1192 15.27971352473146
STARLINK-31437          
1 60057U 24112V   26068.43428554 -.00002014  00000+0 -55929-4 0  9997
2 60057  53.1602  79.4530 0001233  73.8346 286.2790 15.30181601 98552
